[
	{
		"tle0": "0 OBJECT L",
		"tle1": "1 53380U 22096L   22229.57175693  .00005563  00000-0  22547-3 0  9990",
		"tle2": "2 53380  97.4353 130.9847 0005660  72.7520 287.4337 15.25041840  1267",
		"tle_source": "Space-Track.org",
		"sat_id": "BDML-1083-7096-5526-2883",
		"norad_cat_id": 99353,
		"updated": "2022-08-18T00:00:32.386504+0000"
	}
]
